CCSDS_OMM_VERS = 2.0
CREATION_DATE  = 
ORIGINATOR     = 

OBJECT_NAME    = STARLINK-36575
OBJECT_ID      = 2026-016J
CENTER_NAME    = EARTH
REF_FRAME      = TEME
TIME_SYSTEM    = UTC
MEAN_ELEMENT_THEORY = SGP/SGP4

EPOCH          = 2026-02-06T20:00:01.999008
MEAN_MOTION    = 15.80844142
ECCENTRICITY   = .0001333
INCLINATION    = 97.2801
RA_OF_ASC_NODE = 96.7107
ARG_OF_PERICENTER = 87.4810
MEAN_ANOMALY   = 150.4517

EPHEMERIS_TYPE = 0
CLASSIFICATION_TYPE = U
NORAD_CAT_ID   = 67569
ELEMENT_SET_NO = 999
REV_AT_EPOCH   = 308
BSTAR          = -.29659E-3
MEAN_MOTION_DOT = -.56658E-3
MEAN_MOTION_DDOT = 0

CCSDS_OMM_VERS = 2.0
CREATION_DATE  = 
ORIGINATOR     = 

OBJECT_NAME    = STARLINK-36562
OBJECT_ID      = 2026-016K
CENTER_NAME    = EARTH
REF_FRAME      = TEME
TIME_SYSTEM    = UTC
MEAN_ELEMENT_THEORY = SGP/SGP4

EPOCH          = 2026-02-06T20:00:01.999008
MEAN_MOTION    = 15.80860862
ECCENTRICITY   = .0001433
INCLINATION    = 97.2794
RA_OF_ASC_NODE = 96.7121
ARG_OF_PERICENTER = 75.4111
MEAN_ANOMALY   = 167.6954

EPHEMERIS_TYPE = 0
CLASSIFICATION_TYPE = U
NORAD_CAT_ID   = 67570
ELEMENT_SET_NO = 999
REV_AT_EPOCH   = 308
BSTAR          = -.41542E-3
MEAN_MOTION_DOT = -.7916E-3
MEAN_MOTION_DDOT = 0

CCSDS_OMM_VERS = 2.0
CREATION_DATE  = 
ORIGINATOR     = 

OBJECT_NAME    = STARLINK-36578
OBJECT_ID      = 2026-016L
CENTER_NAME    = EARTH
REF_FRAME      = TEME
TIME_SYSTEM    = UTC
MEAN_ELEMENT_THEORY = SGP/SGP4

EPOCH          = 2026-02-06T20:00:01.999008
MEAN_MOTION    = 15.80830821
ECCENTRICITY   = .0001176
INCLINATION    = 97.2798
RA_OF_ASC_NODE = 96.7143
ARG_OF_PERICENTER = 88.3068
MEAN_ANOMALY   = 160.7596

EPHEMERIS_TYPE = 0
CLASSIFICATION_TYPE = U
NORAD_CAT_ID   = 67571
ELEMENT_SET_NO = 999
REV_AT_EPOCH   = 306
BSTAR          = -.21867E-3
MEAN_MOTION_DOT = -.41855E-3
MEAN_MOTION_DDOT = 0

CCSDS_OMM_VERS = 2.0
CREATION_DATE  = 
ORIGINATOR     = 

OBJECT_NAME    = STARLINK-36350
OBJECT_ID      = 2026-016M
CENTER_NAME    = EARTH
REF_FRAME      = TEME
TIME_SYSTEM    = UTC
MEAN_ELEMENT_THEORY = SGP/SGP4

EPOCH          = 2026-02-06T20:00:01.999008
MEAN_MOTION    = 15.80827669
ECCENTRICITY   = .0001064
INCLINATION    = 97.2791
RA_OF_ASC_NODE = 96.7182
ARG_OF_PERICENTER = 86.8263
MEAN_ANOMALY   = 169.6460

EPHEMERIS_TYPE = 0
CLASSIFICATION_TYPE = U
NORAD_CAT_ID   = 67572
ELEMENT_SET_NO = 999
REV_AT_EPOCH   = 297
BSTAR          = -.22585E-5
MEAN_MOTION_DOT = -.574E-5
MEAN_MOTION_DDOT = 0

CCSDS_OMM_VERS = 2.0
CREATION_DATE  = 
ORIGINATOR     = 

OBJECT_NAME    = STARLINK-36588
OBJECT_ID      = 2026-016N
CENTER_NAME    = EARTH
REF_FRAME      = TEME
TIME_SYSTEM    = UTC
MEAN_ELEMENT_THEORY = SGP/SGP4

EPOCH          = 2026-02-06T20:00:01.999008
MEAN_MOTION    = 15.80865606
ECCENTRICITY   = .0001511
INCLINATION    = 97.2782
RA_OF_ASC_NODE = 96.7204
ARG_OF_PERICENTER = 78.9926
MEAN_ANOMALY   = 185.8552

EPHEMERIS_TYPE = 0
CLASSIFICATION_TYPE = U
NORAD_CAT_ID   = 67573
ELEMENT_SET_NO = 999
REV_AT_EPOCH   = 313
BSTAR          = -.55828E-3
MEAN_MOTION_DOT = -.106034E-2
MEAN_MOTION_DDOT = 0

CCSDS_OMM_VERS = 2.0
CREATION_DATE  = 
ORIGINATOR     = 

OBJECT_NAME    = STARLINK-36594
OBJECT_ID      = 2026-016P
CENTER_NAME    = EARTH
REF_FRAME      = TEME
TIME_SYSTEM    = UTC
MEAN_ELEMENT_THEORY = SGP/SGP4

EPOCH          = 2026-02-06T20:00:01.999008
MEAN_MOTION    = 15.80779266
ECCENTRICITY   = .0001522
INCLINATION    = 97.2777
RA_OF_ASC_NODE = 96.7218
ARG_OF_PERICENTER = 105.8302
MEAN_ANOMALY   = 164.0781

EPHEMERIS_TYPE = 0
CLASSIFICATION_TYPE = U
NORAD_CAT_ID   = 67574
ELEMENT_SET_NO = 999
REV_AT_EPOCH   = 313
BSTAR          = .4503E-3
MEAN_MOTION_DOT = .8683E-3
MEAN_MOTION_DDOT = 0

CCSDS_OMM_VERS = 2.0
CREATION_DATE  = 
ORIGINATOR     = 

OBJECT_NAME    = STARLINK-36400
OBJECT_ID      = 2026-016Q
CENTER_NAME    = EARTH
REF_FRAME      = TEME
TIME_SYSTEM    = UTC
MEAN_ELEMENT_THEORY = SGP/SGP4

EPOCH          = 2026-02-06T20:00:01.999008
MEAN_MOTION    = 15.80849641
ECCENTRICITY   = .0001076
INCLINATION    = 97.2784
RA_OF_ASC_NODE = 96.7257
ARG_OF_PERICENTER = 103.3812
MEAN_ANOMALY   = 172.2088

EPHEMERIS_TYPE = 0
CLASSIFICATION_TYPE = U
NORAD_CAT_ID   = 67575
ELEMENT_SET_NO = 999
REV_AT_EPOCH   = 302
BSTAR          = -.32203E-3
MEAN_MOTION_DOT = -.61486E-3
MEAN_MOTION_DDOT = 0

CCSDS_OMM_VERS = 2.0
CREATION_DATE  = 
ORIGINATOR     = 

OBJECT_NAME    = STARLINK-36591
OBJECT_ID      = 2026-016R
CENTER_NAME    = EARTH
REF_FRAME      = TEME
TIME_SYSTEM    = UTC
MEAN_ELEMENT_THEORY = SGP/SGP4

EPOCH          = 2026-02-06T20:00:01.999008
MEAN_MOTION    = 15.80851783
ECCENTRICITY   = .0001435
INCLINATION    = 97.2781
RA_OF_ASC_NODE = 96.7274
ARG_OF_PERICENTER = 95.0852
MEAN_ANOMALY   = 186.4038

EPHEMERIS_TYPE = 0
CLASSIFICATION_TYPE = U
NORAD_CAT_ID   = 67576
ELEMENT_SET_NO = 999
REV_AT_EPOCH   = 308
BSTAR          = -.33428E-3
MEAN_MOTION_DOT = -.63812E-3
MEAN_MOTION_DDOT = 0

CCSDS_OMM_VERS = 2.0
CREATION_DATE  = 
ORIGINATOR     = 

OBJECT_NAME    = STARLINK-36590
OBJECT_ID      = 2026-016S
CENTER_NAME    = EARTH
REF_FRAME      = TEME
TIME_SYSTEM    = UTC
MEAN_ELEMENT_THEORY = SGP/SGP4

EPOCH          = 2026-02-06T20:00:01.999008
MEAN_MOTION    = 15.80853535
ECCENTRICITY   = .0001473
INCLINATION    = 97.2775
RA_OF_ASC_NODE = 96.7296
ARG_OF_PERICENTER = 75.3969
MEAN_ANOMALY   = 211.4991

EPHEMERIS_TYPE = 0
CLASSIFICATION_TYPE = U
NORAD_CAT_ID   = 67577
ELEMENT_SET_NO = 999
REV_AT_EPOCH   = 308
BSTAR          = -.29687E-3
MEAN_MOTION_DOT = -.56737E-3
MEAN_MOTION_DDOT = 0

CCSDS_OMM_VERS = 2.0
CREATION_DATE  = 
ORIGINATOR     = 

OBJECT_NAME    = STARLINK-36613
OBJECT_ID      = 2026-016T
CENTER_NAME    = EARTH
REF_FRAME      = TEME
TIME_SYSTEM    = UTC
MEAN_ELEMENT_THEORY = SGP/SGP4

EPOCH          = 2026-02-06T20:00:01.999008
MEAN_MOTION    = 15.80989800
ECCENTRICITY   = .0001775
INCLINATION    = 97.2774
RA_OF_ASC_NODE = 96.7320
ARG_OF_PERICENTER = 84.3590
MEAN_ANOMALY   = 208.9971

EPHEMERIS_TYPE = 0
CLASSIFICATION_TYPE = U
NORAD_CAT_ID   = 67578
ELEMENT_SET_NO = 999
REV_AT_EPOCH   = 308
BSTAR          = -.13709E-2
MEAN_MOTION_DOT = -.25722E-2
MEAN_MOTION_DDOT = 0

CCSDS_OMM_VERS = 2.0
CREATION_DATE  = 
ORIGINATOR     = 

OBJECT_NAME    = STARLINK-36571
OBJECT_ID      = 2026-016U
CENTER_NAME    = EARTH
REF_FRAME      = TEME
TIME_SYSTEM    = UTC
MEAN_ELEMENT_THEORY = SGP/SGP4

EPOCH          = 2026-02-06T14:00:01.999872
MEAN_MOTION    = 15.82596202
ECCENTRICITY   = .00013885
INCLINATION    = 97.2776
RA_OF_ASC_NODE = 96.4702
ARG_OF_PERICENTER = 107.2185
MEAN_ANOMALY   = 211.3760

EPHEMERIS_TYPE = 0
CLASSIFICATION_TYPE = U
NORAD_CAT_ID   = 67579
ELEMENT_SET_NO = 999
REV_AT_EPOCH   = 304
BSTAR          = -.90611326E-2
MEAN_MOTION_DOT = -.1644168E-1
MEAN_MOTION_DDOT = 0

CCSDS_OMM_VERS = 2.0
CREATION_DATE  = 
ORIGINATOR     = 

OBJECT_NAME    = STARLINK-36612
OBJECT_ID      = 2026-016V
CENTER_NAME    = EARTH
REF_FRAME      = TEME
TIME_SYSTEM    = UTC
MEAN_ELEMENT_THEORY = SGP/SGP4

EPOCH          = 2026-02-06T14:00:01.999872
MEAN_MOTION    = 15.82803930
ECCENTRICITY   = .00011945
INCLINATION    = 97.2775
RA_OF_ASC_NODE = 96.4719
ARG_OF_PERICENTER = 86.9825
MEAN_ANOMALY   = 237.4885

EPHEMERIS_TYPE = 0
CLASSIFICATION_TYPE = U
NORAD_CAT_ID   = 67580
ELEMENT_SET_NO = 999
REV_AT_EPOCH   = 304
BSTAR          = -.89594969E-2
MEAN_MOTION_DOT = -.1641889E-1
MEAN_MOTION_DDOT = 0

CCSDS_OMM_VERS = 2.0
CREATION_DATE  = 
ORIGINATOR     = 

OBJECT_NAME    = STARLINK-36632
OBJECT_ID      = 2026-016W
CENTER_NAME    = EARTH
REF_FRAME      = TEME
TIME_SYSTEM    = UTC
MEAN_ELEMENT_THEORY = SGP/SGP4

EPOCH          = 2026-02-06T14:00:01.999872
MEAN_MOTION    = 15.83459082
ECCENTRICITY   = .00011568
INCLINATION    = 97.2771
RA_OF_ASC_NODE = 96.4786
ARG_OF_PERICENTER = 92.0483
MEAN_ANOMALY   = 249.0047

EPHEMERIS_TYPE = 0
CLASSIFICATION_TYPE = U
NORAD_CAT_ID   = 67581
ELEMENT_SET_NO = 999
REV_AT_EPOCH   = 304
BSTAR          = -.88554273E-2
MEAN_MOTION_DOT = -.1669715E-1
MEAN_MOTION_DDOT = 0

CCSDS_OMM_VERS = 2.0
CREATION_DATE  = 
ORIGINATOR     = 

OBJECT_NAME    = STARLINK-36609
OBJECT_ID      = 2026-016X
CENTER_NAME    = EARTH
REF_FRAME      = TEME
TIME_SYSTEM    = UTC
MEAN_ELEMENT_THEORY = SGP/SGP4

EPOCH          = 2026-02-06T14:00:01.999872
MEAN_MOTION    = 15.83668398
ECCENTRICITY   = .00012119
INCLINATION    = 97.2769
RA_OF_ASC_NODE = 96.4806
ARG_OF_PERICENTER = 69.5653
MEAN_ANOMALY   = 277.1086

EPHEMERIS_TYPE = 0
CLASSIFICATION_TYPE = U
NORAD_CAT_ID   = 67582
ELEMENT_SET_NO = 999
REV_AT_EPOCH   = 304
BSTAR          = -.87393892E-2
MEAN_MOTION_DOT = -.1665101E-1
MEAN_MOTION_DDOT = 0

CCSDS_OMM_VERS = 2.0
CREATION_DATE  = 
ORIGINATOR     = 

OBJECT_NAME    = STARLINK-36577
OBJECT_ID      = 2026-016Y
CENTER_NAME    = EARTH
REF_FRAME      = TEME
TIME_SYSTEM    = UTC
MEAN_ELEMENT_THEORY = SGP/SGP4

EPOCH          = 2026-02-06T14:00:01.999872
MEAN_MOTION    = 15.83123552
ECCENTRICITY   = .00013478
INCLINATION    = 97.2765
RA_OF_ASC_NODE = 96.4738
ARG_OF_PERICENTER = 92.6759
MEAN_ANOMALY   = 239.5693

EPHEMERIS_TYPE = 0
CLASSIFICATION_TYPE = U
NORAD_CAT_ID   = 67583
ELEMENT_SET_NO = 999
REV_AT_EPOCH   = 304
BSTAR          = -.90491665E-2
MEAN_MOTION_DOT = -.1678169E-1
MEAN_MOTION_DDOT = 0

